{
  "norad_id": 65188,
  "name": "STARLINK-34972",
  "history": [
    {
      "epoch": "2026-03-28T21:52:18.363360Z",
      "apogee_km": 550.9401256316987,
      "perigee_km": 548.0461774122023,
      "latitude_deg": -4.219769423534141e-06,
      "longitude_deg": 167.21460905197108,
      "height_km": 552.545453214638,
      "semi_major_axis_km": 6927.63015152195,
      "eccentricity": 0.00020887,
      "inclination_deg": 97.6047,
      "raan_deg": 321.6161,
      "arg_perigee_deg": 89.6274,
      "mean_anomaly_deg": 270.5192,
      "mean_motion_rev_day": 15.05655869
    },
    {
      "epoch": "2026-03-29T04:15:06.419232Z",
      "apogee_km": 550.9638493623188,
      "perigee_km": 548.0196071528098,
      "latitude_deg": 7.903968289235138e-05,
      "longitude_deg": 71.51444732502286,
      "height_km": 552.5622256137506,
      "semi_major_axis_km": 6927.628728257564,
      "eccentricity": 0.0002125,
      "inclination_deg": 97.6048,
      "raan_deg": 321.8782,
      "arg_perigee_deg": 90.3449,
      "mean_anomaly_deg": 269.8022,
      "mean_motion_rev_day": 15.05656333
    },
    {
      "epoch": "2026-03-30T04:10:35.405760Z",
      "apogee_km": 551.0100575706356,
      "perigee_km": 547.7901383275084,
      "latitude_deg": 1.679382198744733e-06,
      "longitude_deg": 72.64422774187751,
      "height_km": 552.434069593961,
      "semi_major_axis_km": 6927.537097949072,
      "eccentricity": 0.0002324,
      "inclination_deg": 97.6049,
      "raan_deg": 322.8613,
      "arg_perigee_deg": 89.0266,
      "mean_anomaly_deg": 271.1227,
      "mean_motion_rev_day": 15.05686206
    },
    {
      "epoch": "2026-03-30T05:46:17.253408Z",
      "apogee_km": 551.0089267231006,
      "perigee_km": 547.7779265321215,
      "latitude_deg": 1.1955355301181608e-05,
      "longitude_deg": 48.719758669827165,
      "height_km": 552.4211163216453,
      "semi_major_axis_km": 6927.530426627611,
      "eccentricity": 0.0002332,
      "inclination_deg": 97.6048,
      "raan_deg": 322.9267,
      "arg_perigee_deg": 88.8075,
      "mean_anomaly_deg": 271.3419,
      "mean_motion_rev_day": 15.05688381
    },
    {
      "epoch": "2026-03-30T13:44:47.361696Z",
      "apogee_km": 550.994422450708,
      "perigee_km": 548.0129044619689,
      "latitude_deg": -2.0940256290276903e-05,
      "longitude_deg": -70.90591062564664,
      "height_km": 552.5295260009938,
      "semi_major_axis_km": 6927.640663456338,
      "eccentricity": 0.00021519,
      "inclination_deg": 97.6045,
      "raan_deg": 323.254,
      "arg_perigee_deg": 88.6264,
      "mean_anomaly_deg": 271.5209,
      "mean_motion_rev_day": 15.05652442
    },
    {
      "epoch": "2026-03-30T21:43:17.457024Z",
      "apogee_km": 550.9536828609625,
      "perigee_km": 548.0824469427635,
      "latitude_deg": -7.245556124376382e-05,
      "longitude_deg": 169.4690766996943,
      "height_km": 552.4949220737833,
      "semi_major_axis_km": 6927.655064901863,
      "eccentricity": 0.00020723,
      "inclination_deg": 97.6051,
      "raan_deg": 323.5819,
      "arg_perigee_deg": 86.6112,
      "mean_anomaly_deg": 273.5351,
      "mean_motion_rev_day": 15.05647747
    },
    {
      "epoch": "2026-03-31T05:41:47.788224Z",
      "apogee_km": 550.9860049683011,
      "perigee_km": 548.0653023935092,
      "latitude_deg": -9.553209995250916e-06,
      "longitude_deg": 49.84256339948066,
      "height_km": 552.5362933703693,
      "semi_major_axis_km": 6927.662653680904,
      "eccentricity": 0.0002108,
      "inclination_deg": 97.6042,
      "raan_deg": 323.9093,
      "arg_perigee_deg": 87.9974,
      "mean_anomaly_deg": 272.1494,
      "mean_motion_rev_day": 15.05645273
    },
    {
      "epoch": "2026-04-01T21:34:18.736608Z",
      "apogee_km": 550.9472818707272,
      "perigee_km": 548.0861608837986,
      "latitude_deg": -1.4592978554522905e-05,
      "longitude_deg": 171.7137957681233,
      "height_km": 552.5239198599148,
      "semi_major_axis_km": 6927.653721377263,
      "eccentricity": 0.0002065,
      "inclination_deg": 97.6034,
      "raan_deg": 325.5471,
      "arg_perigee_deg": 87.8136,
      "mean_anomaly_deg": 272.3327,
      "mean_motion_rev_day": 15.05648185
    },
    {
      "epoch": "2026-04-02T08:44:12.622272Z",
      "apogee_km": 550.955198683374,
      "perigee_km": 548.0163625473806,
      "latitude_deg": 4.9039729921711976e-05,
      "longitude_deg": 4.239335147062622,
      "height_km": 552.4819173612327,
      "semi_major_axis_km": 6927.6227806153765,
      "eccentricity": 0.00021211,
      "inclination_deg": 97.6031,
      "raan_deg": 326.0057,
      "arg_perigee_deg": 87.4432,
      "mean_anomaly_deg": 272.7038,
      "mean_motion_rev_day": 15.05658272
    },
    {
      "epoch": "2026-04-03T16:38:12.149088Z",
      "apogee_km": 551.0383001180217,
      "perigee_km": 547.9250282903286,
      "latitude_deg": 1.2308465627165698e-05,
      "longitude_deg": -114.25886903472494,
      "height_km": 552.4679371427468,
      "semi_major_axis_km": 6927.618664204175,
      "eccentricity": 0.0002247,
      "inclination_deg": 97.6024,
      "raan_deg": 327.3156,
      "arg_perigee_deg": 87.2304,
      "mean_anomaly_deg": 272.918,
      "mean_motion_rev_day": 15.05659614
    },
    {
      "epoch": "2026-04-04T21:20:48.441120Z",
      "apogee_km": 551.043303085783,
      "perigee_km": 547.9688150961574,
      "latitude_deg": -4.5859717148281876e-05,
      "longitude_deg": 175.0887398821844,
      "height_km": 552.6695056043415,
      "semi_major_axis_km": 6927.6430590909695,
      "eccentricity": 0.0002219,
      "inclination_deg": 97.601,
      "raan_deg": 328.4935,
      "arg_perigee_deg": 93.798,
      "mean_anomaly_deg": 266.35,
      "mean_motion_rev_day": 15.05651661
    },
    {
      "epoch": "2026-04-05T14:53:31.752096Z",
      "apogee_km": 551.0940685134101,
      "perigee_km": 548.1220658795828,
      "latitude_deg": 4.836747254240348e-05,
      "longitude_deg": -88.09059874216574,
      "height_km": 552.9979753293683,
      "semi_major_axis_km": 6927.745067196496,
      "eccentricity": 0.0002145,
      "inclination_deg": 97.6016,
      "raan_deg": 329.2152,
      "arg_perigee_deg": 102.7556,
      "mean_anomaly_deg": 257.3911,
      "mean_motion_rev_day": 15.05618406
    },
    {
      "epoch": "2026-04-06T03:39:08.575776Z",
      "apogee_km": 551.0873675494131,
      "perigee_km": 548.0692391003668,
      "latitude_deg": 5.190730743585927e-05,
      "longitude_deg": 80.50612375524392,
      "height_km": 552.905964492092,
      "semi_major_axis_km": 6927.71530332489,
      "eccentricity": 0.00021783,
      "inclination_deg": 97.6013,
      "raan_deg": 329.7394,
      "arg_perigee_deg": 100.15,
      "mean_anomaly_deg": 259.9973,
      "mean_motion_rev_day": 15.05628109
    },
    {
      "epoch": "2026-04-07T09:57:26.400960Z",
      "apogee_km": 550.8771703639995,
      "perigee_km": 548.0591591350822,
      "latitude_deg": 5.915999215417741e-06,
      "longitude_deg": -14.067925192390815,
      "height_km": 552.9938673721177,
      "semi_major_axis_km": 6927.605164749541,
      "eccentricity": 0.00020339,
      "inclination_deg": 97.6016,
      "raan_deg": 330.9842,
      "arg_perigee_deg": 109.2051,
      "mean_anomaly_deg": 250.9396,
      "mean_motion_rev_day": 15.05664015
    },
    {
      "epoch": "2026-04-07T21:07:20.162208Z",
      "apogee_km": 550.7059207897664,
      "perigee_km": 548.2410769742646,
      "latitude_deg": 6.291602138049809e-05,
      "longitude_deg": 178.45703314356544,
      "height_km": 552.883995934759,
      "semi_major_axis_km": 6927.610498882015,
      "eccentricity": 0.0001779,
      "inclination_deg": 97.6029,
      "raan_deg": 331.4417,
      "arg_perigee_deg": 106.4013,
      "mean_anomaly_deg": 253.741,
      "mean_motion_rev_day": 15.05662276
    },
    {
      "epoch": "2026-04-08T14:39:59.915232Z",
      "apogee_km": 550.7454594272667,
      "perigee_km": 548.1490008578103,
      "latitude_deg": -4.006398639176012e-05,
      "longitude_deg": -84.70901493729481,
      "height_km": 551.6303199003289,
      "semi_major_axis_km": 6927.584230142538,
      "eccentricity": 0.0001874,
      "inclination_deg": 97.6035,
      "raan_deg": 332.1618,
      "arg_perigee_deg": 47.3414,
      "mean_anomaly_deg": 312.797,
      "mean_motion_rev_day": 15.0567084
    },
    {
      "epoch": "2026-04-09T12:59:47.326272Z",
      "apogee_km": 550.88383165497,
      "perigee_km": 548.1335563144585,
      "latitude_deg": -1.206914205956933e-05,
      "longitude_deg": -59.65642122465644,
      "height_km": 552.8311861883986,
      "semi_major_axis_km": 6927.645693984714,
      "eccentricity": 0.0001985,
      "inclination_deg": 97.6039,
      "raan_deg": 333.079,
      "arg_perigee_deg": 100.9181,
      "mean_anomaly_deg": 259.2269,
      "mean_motion_rev_day": 15.05650802
    },
    {
      "epoch": "2026-04-10T12:55:18.513408Z",
      "apogee_km": 550.9415488534169,
      "perigee_km": 548.1386107069384,
      "latitude_deg": -9.59819988215617e-05,
      "longitude_deg": -58.53653748035917,
      "height_km": 552.8117464654734,
      "semi_major_axis_km": 6927.677079780177,
      "eccentricity": 0.0002023,
      "inclination_deg": 97.6041,
      "raan_deg": 334.0614,
      "arg_perigee_deg": 98.6071,
      "mean_anomaly_deg": 261.5384,
      "mean_motion_rev_day": 15.0564057
    },
    {
      "epoch": "2026-04-11T09:39:24.884640Z",
      "apogee_km": 550.9325742286892,
      "perigee_km": 548.1144019421372,
      "latitude_deg": 1.14424099067302e-05,
      "longitude_deg": -9.563260696725038,
      "height_km": 552.71099140858,
      "semi_major_axis_km": 6927.660488085413,
      "eccentricity": 0.0002034,
      "inclination_deg": 97.6039,
      "raan_deg": 334.9128,
      "arg_perigee_deg": 95.1157,
      "mean_anomaly_deg": 265.0302,
      "mean_motion_rev_day": 15.05645979
    }
  ]
}